COSMOS 2058             
1 20465U 90010A   26202.14927228  .00002417  00000+0  13835-3 0  9990
2 20465  82.4675 275.8593 0008448 225.6768 134.3771 15.12180702962404
SL-14 R/B               
1 20466U 90010B   26202.22640465  .00000260  00000+0  28601-4 0  9997
2 20466  82.5040 141.9795 0018760 216.1348 143.8601 14.83665436948282
SL-14 R/B               
1 20511U 90018B   26202.10275077  .00000252  00000+0  28609-4 0  9995
2 20511  82.5213  98.4084 0016574  18.2005 341.9799 14.82236599942347
HST                     
1 20580U 90037B   26202.23634140  .00004226  00000+0  12921-3 0  9990
2 20580  28.4721 207.7932 0002089 161.9794 198.0877 15.31099653793794
SL-16 R/B               
1 20625U 90046B   26201.87996571  .00000278  00000+0  16799-3 0  9998
2 20625  70.9996  18.1833 0012239 104.2658 255.9824 14.15028387867234
COSMOS 2084             
1 20663U 90055A   26202.12006072  .00001066  00000+0  86080-4 0  9994
2 20663  62.7873 240.2612 0008827 323.4108  36.6388 15.06236911956418
SL-6 R/B(2)             
1 20666U 90055D   26202.15610332  .00001484  00000+0  11897-3 0  9997
2 20666  62.7810 159.7735 0046043   9.8205 350.3783 15.04105183958261
SL-8 R/B                
1 20775U 90078B   26201.90326410  .00008400  00000+0  23808-3 0  9996
2 20775  82.9031 131.1426 0342916 284.0796  72.2540 14.93667638829153
SL-8 R/B                
1 21088U 91006B   26202.14024228  .00000085  00000+0  70050-4 0  9998
2 21088  82.9402  70.7718 0023080  24.4312  89.7123 13.77510158782448
OKEAN-3                 
1 21397U 91039A   26202.10457635  .00001917  00000+0  13133-3 0  9998
2 21397  82.5150 207.4868 0012955 231.7716 128.2345 15.05456593885109
COSMOS 2151             
1 21422U 91042A   26202.27007127  .00001190  00000+0  92185-4 0  9994
2 21422  82.4983 314.7888 0011415 334.1393  25.9259 15.00524881883223
SL-14 R/B               
1 21423U 91042B   26202.11653374  .00000227  00000+0  25632-4 0  9992
2 21423  82.4928  95.0784 0017492 157.8007 202.3968 14.81920203872839
ERS-1                   
1 21574U 91050A   26202.01483765  .00000213  00000+0  82762-4 0  9994
2 21574  98.7796 223.5389 0032277 164.6775 195.5397 14.39536180834910
ARIANE 40 R/B           
1 21610U 91050F   26202.09604367  .00000139  00000+0  54033-4 0  9993
2 21610  98.1858 249.1890 0003870  48.0445 312.1075 14.42973930838232
INTERCOSMOS 25          
1 21819U 91086A   26202.11897452  .00000821  00000+0  15865-3 0  9992
2 21819  82.5999 229.2764 1484855 189.1446 167.9556 12.12244914512855
SL-8 R/B                
1 21876U 92008B   26202.01402054  .00000130  00000+0  11789-3 0  9993
2 21876  82.9279 168.6378 0035935 120.8436 311.7914 13.75984872727759
SL-8 R/B                
1 21938U 92020B   26202.10860248 -.00000012  00000+0 -28132-4 0  9991
2 21938  82.9275  54.6561 0027792 286.2877 197.1533 13.75549804719475
USA 81                  
1 21949U 92023A   26202.08517376  .00000108  00000+0  32459-4 0  9995
2 21949  85.0047  54.4369 0001721  65.0035 295.1336 14.32405965113881
COSMOS 2219             
1 22219U 92076A   26202.14446013 -.00000285  00000+0 -12467-3 0  9994
2 22219  71.0607  99.0876 0018607 348.6200  11.4499 14.14106367737247
SL-16 R/B               
1 22220U 92076B   26202.12103299 -.00000195  00000+0 -73138-4 0  9993
2 22220  70.9996 267.2987 0015031 254.6091 124.9506 14.16877657740738
COSMOS 2221             
1 22236U 92080A   26202.10441260  .00001111  00000+0  95029-4 0  9996
2 22236  82.5052 151.2694 0015920 102.1668 258.1338 14.96615085800742
SL-16 R/B               
1 22285U 92093B   26202.09307449 -.00000211  00000+0 -83666-4 0  9998
2 22285  71.0212  84.2141 0002163 117.5513 242.5830 14.15463626732036
COSMOS 2228             
1 22286U 92094A   26202.22932213  .00001168  00000+0  97275-4 0  9999
2 22286  82.5185 109.4353 0016767 207.4946 152.5392 14.97687189796048
SL-16 R/B               
1 22566U 93016B   26202.00606493  .00000271  00000+0  16351-3 0  9998
2 22566  71.0087 295.1762 0008542 127.5609 232.6291 14.15316192721038
COSMOS 2242             
1 22626U 93024A   26202.27126014  .00001122  00000+0  95067-4 0  9997
2 22626  82.5203 138.9341 0015079 210.7042 149.3300 14.96996702800378
SL-16 R/B               
1 22803U 93059B   26202.08611060  .00000213  00000+0  12919-3 0  9995
2 22803  70.9902  89.8180 0017004 359.7266   0.3845 14.17250501698434
ARIANE 40 R/B           
1 22830U 93061H   26202.14174896  .00000089  00000+0  48176-4 0  9992
2 22830  98.4801 268.2907 0009639 245.9738 114.0437 14.32920003713214
COSMOS 2278             
1 23087U 94023A   26202.12313855  .00000209  00000+0  13360-3 0  9994
2 23087  71.0515 255.9231 0009309 196.7528 163.3288 14.14395081663672
SL-16 R/B               
1 23088U 94023B   26202.10973175  .00000339  00000+0  19947-3 0  9991
2 23088  70.9996 150.6909 0001258 104.4508 255.6754 14.15027823664969
SL-16 R/B               
1 23343U 94074B   26202.08985319  .00000237  00000+0  38276-4 0  9995
2 23343  97.6984 227.3966 0007563 137.2368 239.9687 14.79527449706971
