OBJECT_NAME,OBJECT_ID,EPOCH,MEAN_MOTION,ECCENTRICITY,INCLINATION,RA_OF_ASC_NODE,ARG_OF_PERICENTER,MEAN_ANOMALY,EPHEMERIS_TYPE,CLASSIFICATION_TYPE,NORAD_CAT_ID,ELEMENT_SET_NO,REV_AT_EPOCH,BSTAR,MEAN_MOTION_DOT,MEAN_MOTION_DDOT
COSMOS 2058,1990-010A,2026-07-21T03:34:57.124992,15.12180702,.00084489,82.4675,275.8593,225.6768,134.3771,0,U,20465,999,96240,.13834926E-3,.2417E-4,0
SL-14 R/B,1990-010B,2026-07-21T05:26:01.361760,14.83665436,.00187608,82.5040,141.9795,216.1348,143.8601,0,U,20466,999,94828,.28600721E-4,.26E-5,0
SL-14 R/B,1990-018B,2026-07-21T02:27:57.666528,14.82236599,.00165741,82.5213,98.4084,18.2005,341.9799,0,U,20511,999,94234,.28608573E-4,.252E-5,0
HST,1990-037B,2026-07-21T05:40:19.896960,15.31099653,.00020896,28.4721,207.7932,161.9794,198.0877,0,U,20580,999,79379,.12921055E-3,.4226E-4,0
SL-16 R/B,1990-046B,2026-07-20T21:07:09.037344,14.15028387,.00122395,70.9996,18.1833,104.2658,255.9824,0,U,20625,999,86723,.16798766E-3,.278E-5,0
COSMOS 2084,1990-055A,2026-07-21T02:52:53.246208,15.06236911,.00088275,62.7873,240.2612,323.4108,36.6388,0,U,20663,999,95641,.86079564E-4,.1066E-4,0
SL-6 R/B(2),1990-055D,2026-07-21T03:44:47.326848,15.04105183,.00460439,62.7810,159.7735,9.8205,350.3783,0,U,20666,999,95826,.11896732E-3,.1484E-4,0
SL-8 R/B,1990-078B,2026-07-20T21:40:42.018240,14.93667638,.03429165,82.9031,131.1426,284.0796,72.2540,0,U,20775,999,82915,.23807633E-3,.84E-4,0
SL-8 R/B,1991-006B,2026-07-21T03:21:56.932992,13.77510158,.00230802,82.9402,70.7718,24.4312,89.7123,0,U,21088,999,78244,.70049858E-4,.85E-6,0
OKEAN-3,1991-039A,2026-07-21T02:30:35.396640,15.05456593,.00129558,82.5150,207.4868,231.7716,128.2345,0,U,21397,999,88510,.13133472E-3,.1917E-4,0
COSMOS 2151,1991-042A,2026-07-21T06:28:54.157728,15.00524881,.0011415,82.4983,314.7888,334.1393,25.9259,0,U,21422,999,88322,.92184849E-4,.119E-4,0
SL-14 R/B,1991-042B,2026-07-21T02:47:48.515136,14.81920203,.00174925,82.4928,95.0784,157.8007,202.3968,0,U,21423,999,87283,.25631621E-4,.227E-5,0
ERS-1,1991-050A,2026-07-21T00:21:21.972960,14.39536180,.00322773,98.7796,223.5389,164.6775,195.5397,0,U,21574,999,83491,.82761966E-4,.213E-5,0
ARIANE 40 R/B,1991-050F,2026-07-21T02:18:18.173088,14.42973930,.000387,98.1858,249.1890,48.0445,312.1075,0,U,21610,999,83823,.54033108E-4,.139E-5,0
INTERCOSMOS 25,1991-086A,2026-07-21T02:51:19.398528,12.12244914,.1484855,82.5999,229.2764,189.1446,167.9556,0,U,21819,999,51285,.1586486E-3,.821E-5,0
SL-8 R/B,1992-008B,2026-07-21T00:20:11.374656,13.75984872,.00359354,82.9279,168.6378,120.8436,311.7914,0,U,21876,999,72775,.11788802E-3,.13E-5,0
SL-8 R/B,1992-020B,2026-07-21T02:36:23.254272,13.75549804,.00277926,82.9275,54.6561,286.2877,197.1533,0,U,21938,999,71947,-.28131664E-4,-.12E-6,0
USA 81,1992-023A,2026-07-21T02:02:39.012864,14.32405965,.00017212,85.0047,54.4369,65.0035,295.1336,0,U,21949,999,11388,.32458863E-4,.108E-5,0
COSMOS 2219,1992-076A,2026-07-21T03:28:01.355232,14.14106367,.00186079,71.0607,99.0876,348.6200,11.4499,0,U,22219,999,73724,-.12466676E-3,-.285E-5,0
SL-16 R/B,1992-076B,2026-07-21T02:54:17.250336,14.16877657,.00150313,70.9996,267.2987,254.6091,124.9506,0,U,22220,999,74073,-.73137609E-4,-.195E-5,0
COSMOS 2221,1992-080A,2026-07-21T02:30:21.248640,14.96615085,.00159201,82.5052,151.2694,102.1668,258.1338,0,U,22236,999,80074,.95029066E-4,.1111E-4,0
SL-16 R/B,1992-093B,2026-07-21T02:14:01.635936,14.15463626,.00021631,71.0212,84.2141,117.5513,242.5830,0,U,22285,999,73203,-.83665968E-4,-.211E-5,0
COSMOS 2228,1992-094A,2026-07-21T05:30:13.432032,14.97687189,.00167673,82.5185,109.4353,207.4946,152.5392,0,U,22286,999,79604,.97274876E-4,.1168E-4,0
SL-16 R/B,1993-016B,2026-07-21T00:08:44.009952,14.15316192,.00085421,71.0087,295.1762,127.5609,232.6291,0,U,22566,999,72103,.16351332E-3,.271E-5,0
COSMOS 2242,1993-024A,2026-07-21T06:30:36.876096,14.96996702,.00150791,82.5203,138.9341,210.7042,149.3300,0,U,22626,999,80037,.95066839E-4,.1122E-4,0
SL-16 R/B,1993-059B,2026-07-21T02:03:59.955840,14.17250501,.0017004,70.9902,89.8180,359.7266,0.3845,0,U,22803,999,69843,.12919309E-3,.213E-5,0
ARIANE 40 R/B,1993-061H,2026-07-21T03:24:07.110144,14.32920003,.00096394,98.4801,268.2907,245.9738,114.0437,0,U,22830,999,71321,.4817648E-4,.89E-6,0
COSMOS 2278,1994-023A,2026-07-21T02:57:19.170720,14.14395081,.00093092,71.0515,255.9231,196.7528,163.3288,0,U,23087,999,66367,.13360209E-3,.209E-5,0
SL-16 R/B,1994-023B,2026-07-21T02:38:00.823200,14.15027823,.00012588,70.9996,150.6909,104.4508,255.6754,0,U,23088,999,66496,.19946636E-3,.339E-5,0
SL-16 R/B,1994-074B,2026-07-21T02:09:23.315616,14.79527449,.00075635,97.6984,227.3966,137.2368,239.9687,0,U,23343,999,70697,.38275903E-4,.237E-5,0
